STARLINK-36446          
1 67412U 26005J   26031.50002314 -.02048761  00000+0 -32875-1 0  9995
2 67412  43.0007  91.7765 0001447 282.4618 142.6036 15.55390070  4201
STARLINK-36442          
1 67413U 26005K   26031.50002314 -.02045796  00000+0 -32826-1 0  9997
2 67413  43.0006  91.7708 0001354 286.7320 140.2498 15.55388011  4200
STARLINK-36506          
1 67414U 26005L   26031.50002314 -.02035476  00000+0 -32648-1 0  9994
2 67414  43.0009  91.7663 0001340 286.3992 142.5001 15.55381866  4206
STARLINK-36468          
1 67415U 26005M   26031.50002314 -.02044423  00000+0 -32803-1 0  9990
2 67415  43.0006  91.7621 0001299 290.3585 140.4572 15.55387143  4152
STARLINK-36487          
1 67416U 26005N   26031.50002314 -.02042965  00000+0 -32773-1 0  9996
2 67416  43.0004  91.7570 0001476 283.0642 149.6668 15.55388531  4209
STARLINK-36374          
1 67417U 26005P   26031.50002314 -.02045549  00000+0 -32821-1 0  9992
2 67417  43.0004  91.7528 0001315 288.7047 145.9440 15.55388636  4209
STARLINK-36455          
1 67418U 26005Q   26031.50002314 -.02047955  00000+0 -32862-1 0  9991
2 67418  43.0007  91.7477 0001284 283.6070 152.9587 15.55390947  4209
STARLINK-36424          
1 67419U 26005R   26031.50002314 -.02025586  00000+0 -32477-1 0  9990
2 67419  43.0001  91.7424 0001432 286.9271 151.5587 15.55375532  4208
STARLINK-35564          
1 67420U 26005S   26031.50002314 -.02042183  00000+0 -32761-1 0  9990
2 67420  43.0007  91.7374 0001389 283.7838 156.6168 15.55387172  4108
STARLINK-36431          
1 67421U 26005T   26031.50002314 -.02047919  00000+0 -32862-1 0  9995
2 67421  43.0007  91.7328 0001292 287.1442 155.1732 15.55390069  4009
STARLINK-36418          
1 67422U 26005U   26031.50002314 -.02025931  00000+0 -32483-1 0  9995
2 67422  43.0005  91.7280 0001427 287.2200 157.0183 15.55375388  4152
STARLINK-36465          
1 67423U 26005V   26031.50002314 -.02044259  00000+0 -32797-1 0  9998
2 67423  43.0004  91.7236 0001364 285.8585 160.2940 15.55388425  3942
